NORAD_CAT_ID,OBJECT_NAME,OBJECT_TYPE,EPOCH,MEAN_MOTION,ECCENTRICITY,INCLINATION,RA_OF_ASC_NODE,ARG_OF_PERICENTER,MEAN_ANOMALY,BSTAR,MEAN_MOTION_DOT,MEAN_MOTION_DDOT,TLE_LINE0,TLE_LINE1,TLE_LINE2,SEMIMAJOR_AXIS,PERIOD,APOGEE,PERIGEE,DECAYED
53853.0,STARLINK-4794,PAYLOAD,2022-10-04 14:00:01,15.73201657,0.0001065,53.2162,181.8637,101.4674,94.2109,-0.00023952,-0.000341,0.0,0 STARLINK-4794,1 53853U 22114AM  22277.58334491 -.00034100  00000-0 -23952-3 0  9995,2 53853  53.2162 181.8637 0001065 101.4674  94.2109 15.73201657  1300,6727.89,91.533,350.472,349.039,0.0
53853.0,STARLINK-4794,PAYLOAD,2022-10-04 16:00:00,15.73179499,0.0001118,53.2162,181.451,104.4111,203.5036,4.2292e-05,5.314e-05,0.0,0 STARLINK-4794,1 53853U 22114AM  22277.66667824  .00005314  00000-0  42292-4 0  9995,2 53853  53.2162 181.4510 0001118 104.4111 203.5036 15.73179499  3038,6727.954000000002,91.534,350.571,349.066,0.0
53853.0,STARLINK-4794,PAYLOAD,2022-10-04 22:00:00,15.73191758,0.0001017,53.2164,180.2154,97.807,186.7714,-8.725299999999999e-05,-0.00012841,0.0,0 STARLINK-4794,1 53853U 22114AM  22277.91667824 -.00012841  00000-0 -87253-4 0  9994,2 53853  53.2164 180.2154 0001017  97.8070 186.7714 15.73191758  1303,6727.919,91.534,350.468,349.099,0.0
53853.0,STARLINK-4794,PAYLOAD,2022-10-05 14:00:01,15.73153633,0.0001009,53.2161,176.9155,107.985,354.4592,0.00011352,0.0001530999999999,0.0,0 STARLINK-4794,1 53853U 22114AM  22278.58335648  .00015310  00000-0  11352-3 0  9992,2 53853  53.2161 176.9155 0001009 107.9850 354.4592 15.73153633  1301,6728.026999999999,91.536,350.571,349.214,0.0
53853.0,STARLINK-4794,PAYLOAD,2022-10-05 22:00:00,15.73184584,0.0001193,53.2164,175.2677,101.1161,90.1359,-6.1525e-05,-9.239e-05,0.0,0 STARLINK-4794,1 53853U 22114AM  22278.91667824 -.00009239  00000-0 -61525-4 0  9996,2 53853  53.2164 175.2677 0001193 101.1161  90.1359 15.73184584  1304,6727.939,91.534,350.607,349.001,0.0
53853.0,STARLINK-4794,PAYLOAD,2022-10-06 06:00:00,15.732053099999998,0.0001109,53.2163,173.6187,93.1262,187.0645,0.0002805,0.00038938,0.0,0 STARLINK-4794,1 53853U 22114AM  22279.25001157  .00038938  00000-0  28050-3 0  9996,2 53853  53.2163 173.6187 0001109  93.1262 187.0645 15.73205310  3284,6727.88,91.533,350.491,348.999,0.0
53853.0,STARLINK-4794,PAYLOAD,2022-10-06 14:00:01,15.73190582,0.0001152,53.2168,171.9673,106.3148,262.8243,0.00016088,0.00022008,0.0,0 STARLINK-4794,1 53853U 22114AM  22279.58334491  .00022008  00000-0  16088-3 0  9991,2 53853  53.2168 171.9673 0001152 106.3148 262.8243 15.73190582  1309,6727.922,91.534,350.56199999999984,349.01199999999994,0.0
53853.0,STARLINK-4794,PAYLOAD,2022-10-06 22:42:55,15.73205018,0.0001157,53.2169,170.1721,97.9205,168.9734,-0.00060505,-0.00084701,0.0,0 STARLINK-4794,1 53853U 22114AM  22279.94646991 -.00084701  00000-0 -60505-3 0  9995,2 53853  53.2169 170.1721 0001157  97.9205 168.9734 15.73205018  1301,6727.880999999999,91.533,350.524,348.967,0.0
53853.0,STARLINK-4794,PAYLOAD,2022-10-07 00:00:00,15.73182298,0.0001152,53.217,169.9076,93.9685,116.3372,-0.00034489,-0.00048705,0.0,0 STARLINK-4794,1 53853U 22114AM  22280.00001157 -.00048705  00000-0 -34489-3 0  9999,2 53853  53.2170 169.9076 0001152  93.9685 116.3372 15.73182298  3407,6727.946,91.534,350.586,349.036,0.0
53853.0,STARLINK-4794,PAYLOAD,2022-10-07 06:00:00,15.73216233,0.0001075,53.2164,168.6701,95.5819,91.4573,-8.5464e-05,-0.00012604,0.0,0 STARLINK-4794,1 53853U 22114AM  22280.25001157 -.00012604  00000-0 -85464-4 0  9995,2 53853  53.2164 168.6701 0001075  95.5819  91.4573 15.73216233  3449,6727.849,91.532,350.43699999999984,348.991,0.0
53853.0,STARLINK-4794,PAYLOAD,2022-10-07 14:00:01,15.73227224,0.0001388,53.2165,167.0189,107.7926,168.19099999999997,-0.00076225,-0.00106379,0.0,0 STARLINK-4794,1 53853U 22114AM  22280.58334491 -.00106379  00000-0 -76225-3 0  9998,2 53853  53.2165 167.0189 0001388 107.7926 168.1910 15.73227224  1307,6727.818,91.532,350.616,348.749,0.0
53853.0,STARLINK-4794,PAYLOAD,2022-10-07 22:00:00,15.732587900000002,0.0001197,53.2171,165.3702,112.1032,252.7993,-0.0021293,-0.00290105,0.0,0 STARLINK-4794,1 53853U 22114AM  22280.91667824 -.00290105  00000-0 -21293-2 0  9999,2 53853  53.2171 165.3702 0001197 112.1032 252.7993 15.73258790  3543,6727.728,91.53,350.398,348.787,0.0
53853.0,STARLINK-4794,PAYLOAD,2022-10-08 06:00:00,15.73236347,0.0001118,53.2163,163.7218,97.5067,356.2979,-0.00050699,-0.00071281,0.0,0 STARLINK-4794,1 53853U 22114AM  22281.25001157 -.00071281  00000-0 -50699-3 0  9993,2 53853  53.2163 163.7218 0001118  97.5067 356.2979 15.73236347  3600,6727.792,91.531,350.409,348.904,0.0
53853.0,STARLINK-4794,PAYLOAD,2022-10-08 14:00:01,15.73130571,0.0001107,53.2165,162.0705,112.3898,70.3616,0.00068913,0.00096927,0.0,0 STARLINK-4794,1 53853U 22114AM  22281.58334491  .00096927  00000-0  68913-3 0  9999,2 53853  53.2165 162.0705 0001107 112.3898  70.3616 15.73130571  1300,6728.093000000003,91.537,350.70300000000015,349.213,0.0
53853.0,STARLINK-4794,PAYLOAD,2022-10-08 22:00:00,15.73239075,9.55e-05,53.2165,160.4229,105.5522,166.09599999999998,-0.00022281,-0.00031822,0.0,0 STARLINK-4794,1 53853U 22114AM  22281.91667824 -.00031822  00000-0 -22281-3 0  9998,2 53853  53.2165 160.4229 0000955 105.5522 166.0960 15.73239075  3701,6727.784000000002,91.531,350.291,349.006,0.0
53853.0,STARLINK-4794,PAYLOAD,2022-10-09 14:00:01,15.73201757,0.0001240999999999,53.2161,157.1222,111.2138,338.3644,-2.2792e-05,-3.817e-05,0.0,0 STARLINK-4794,1 53853U 22114AM  22282.58334491 -.00003817  00000-0 -22792-4 0  9994,2 53853  53.2161 157.1222 0001241 111.2138 338.3644 15.73201757  1302,6727.89,91.533,350.59,348.92,0.0
53853.0,STARLINK-4794,PAYLOAD,2022-10-09 22:00:00,15.73200045,0.0001302,53.2159,155.4746,102.1466,76.3635,-0.0002701,-0.00038354,0.0,0 STARLINK-4794,1 53853U 22114AM  22282.91667824 -.00038354  00000-0 -27010-3 0  9991,2 53853  53.2159 155.4746 0001302 102.1466  76.3635 15.73200045  1300,6727.895,91.533,350.636,348.884,0.0
53853.0,STARLINK-4794,PAYLOAD,2022-10-10 14:00:01,15.73194298,0.0001233,53.2159,152.1726,116.5547,239.8473,0.00027864,0.00038656,0.0,0 STARLINK-4794,1 53853U 22114AM  22283.58334491  .00038656  00000-0  27864-3 0  9996,2 53853  53.2159 152.1726 0001233 116.5547 239.8473 15.73194298  3966,6727.911,91.534,350.606,348.94699999999995,0.0
53853.0,STARLINK-4794,PAYLOAD,2022-10-10 22:00:01,15.73301652,0.0001093,53.2168,150.5248,112.448,332.9499,-0.0030036,-0.00404266,0.0,0 STARLINK-4794,1 53853U 22114AM  22283.91668981 -.00404266  00000-0 -30036-2 0  9997,2 53853  53.2168 150.5248 0001093 112.4480 332.9499 15.73301652  1305,6727.605,91.527,350.206,348.735,0.0
53853.0,STARLINK-4794,PAYLOAD,2022-10-11 06:00:00,15.73166689,9.49e-05,53.2159,148.8754,103.7571,70.3929,-0.00058633,-0.0008199,0.0,0 STARLINK-4794,1 53853U 22114AM  22284.25001157 -.00081990  00000-0 -58633-3 0  9990,2 53853  53.2159 148.8754 0000949 103.7571  70.3929 15.73166689  4077,6727.99,91.535,350.494,349.217,0.0
53853.0,STARLINK-4794,PAYLOAD,2022-10-11 14:00:01,15.73129994,0.000157,53.2171,147.2235,104.2756,158.8113,0.00084257,0.0011895999999999,0.0,0 STARLINK-4794,1 53853U 22114AM  22284.58334491  .00118960  00000-0  84257-3 0  9993,2 53853  53.2171 147.2235 0001570 104.2756 158.8113 15.73129994  1308,6728.095,91.537,351.016,348.903,0.0
53853.0,STARLINK-4794,PAYLOAD,2022-10-11 22:00:00,15.73229432,0.0001081,53.2152,145.578,105.4531,246.4082,-0.00031902,-0.00045207,0.0,0 STARLINK-4794,1 53853U 22114AM  22284.91667824 -.00045207  00000-0 -31902-3 0  9993,2 53853  53.2152 145.5780 0001081 105.4531 246.4082 15.73229432  1301,6727.811,91.531,350.404,348.949,0.0
53853.0,STARLINK-4794,PAYLOAD,2022-10-12 06:00:00,15.73228657,0.0001036,53.2158,143.9272,101.6985,339.1249,0.00046948,0.00065867,0.0,0 STARLINK-4794,1 53853U 22114AM  22285.25001157  .00065867  00000-0  46948-3 0  9990,2 53853  53.2158 143.9272 0001036 101.6985 339.1249 15.73228657  4234,6727.813,91.532,350.375,348.981,0.0
53853.0,STARLINK-4794,PAYLOAD,2022-10-12 14:00:01,15.73265878,9.940000000000004e-05,53.2168,142.275,109.3195,60.5013,-0.0006729,-0.00094267,0.0,0 STARLINK-4794,1 53853U 22114AM  22285.58334491 -.00094267  00000-0 -67290-3 0  9997,2 53853  53.2168 142.2750 0000994 109.3195  60.5013 15.73265878  4283,6727.706999999999,91.529,350.241,348.904,0.0
53853.0,STARLINK-4794,PAYLOAD,2022-10-12 22:00:00,15.73204285,9.66e-05,53.2175,140.6271,101.7758,157.0105,-2.0528e-06,-9.07e-06,0.0,0 STARLINK-4794,1 53853U 22114AM  22285.91667824 -.00000907  00000-0 -20528-5 0  9996,2 53853  53.2175 140.6271 0000966 101.7758 157.0105 15.73204285  1300,6727.8830000000025,91.533,350.398,349.098,0.0
53853.0,STARLINK-4794,PAYLOAD,2022-10-13 06:00:00,15.73204653,9.35e-05,53.2174,138.9765,103.2967,244.4244,-5.3303e-06,-1.367e-05,0.0,0 STARLINK-4794,1 53853U 22114AM  22286.25001157 -.00001367  00000-0 -53303-5 0  9993,2 53853  53.2174 138.9765 0000935 103.2967 244.4244 15.73204653  4387,6727.882,91.533,350.376,349.11800000000005,0.0
53853.0,STARLINK-4794,PAYLOAD,2022-10-13 14:00:01,15.73361446,0.0001258,53.2168,137.3263,104.8912,331.6745,-0.0016157,-0.00223003,0.0,0 STARLINK-4794,1 53853U 22114AM  22286.58334491 -.00223003  00000-0 -16157-2 0  9995,2 53853  53.2168 137.3263 0001258 104.8912 331.6745 15.73361446  1300,6727.435,91.524,350.146,348.454,0.0
53853.0,STARLINK-4794,PAYLOAD,2022-10-13 22:00:00,15.73220831,0.0001133,53.2173,135.6787,100.5578,65.0234,-0.00019178,-0.0002747,0.0,0 STARLINK-4794,1 53853U 22114AM  22286.91667824 -.00027470  00000-0 -19178-3 0  9998,2 53853  53.2173 135.6787 0001133 100.5578  65.0234 15.73220831  1304,6727.8359999999975,91.532,350.463,348.939,0.0
53853.0,STARLINK-4794,PAYLOAD,2022-10-14 08:00:01,15.7328586,0.0001007,53.2164,133.6161,104.2135,262.6195,-0.0014307,-0.00197484,0.0,0 STARLINK-4794,1 53853U 22114AM  22287.33335648 -.00197484  00000-0 -14307-2 0  9992,2 53853  53.2164 133.6161 0001007 104.2135 262.6195 15.73285860  4552,6727.65,91.528,350.1930000000001,348.838,0.0
